[{"OBJECT_NAME":"KUIPER-00083","OBJECT_ID":"2025-151P","EPOCH":"2026-03-02T22:40:40.904832","MEAN_MOTION":14.79943898,"ECCENTRICITY":6.62e-5,"INCLINATION":51.9029,"RA_OF_ASC_NODE":325.4156,"ARG_OF_PERICENTER":116.5097,"MEAN_ANOMALY":243.5934,"EPHEMERIS_TYPE":0,"CLASSIFICATION_TYPE":"U","NORAD_CAT_ID":64829,"ELEMENT_SET_NO":999,"REV_AT_EPOCH":3556,"BSTAR":0.00023704838,"MEAN_MOTION_DOT":1.587e-5,"MEAN_MOTION_DDOT":0},{"OBJECT_NAME":"KUIPER-00084","OBJECT_ID":"2025-151Q","EPOCH":"2026-03-02T22:25:04.868832","MEAN_MOTION":14.79923673,"ECCENTRICITY":0.0001051,"INCLINATION":51.9031,"RA_OF_ASC_NODE":335.4479,"ARG_OF_PERICENTER":208.0046,"MEAN_ANOMALY":152.086,"EPHEMERIS_TYPE":0,"CLASSIFICATION_TYPE":"U","NORAD_CAT_ID":64830,"ELEMENT_SET_NO":999,"REV_AT_EPOCH":3423,"BSTAR":-0.00012706034,"MEAN_MOTION_DOT":-1.189e-5,"MEAN_MOTION_DDOT":0},{"OBJECT_NAME":"KUIPER-00085","OBJECT_ID":"2025-151R","EPOCH":"2026-03-02T22:03:42.867360","MEAN_MOTION":14.79936172,"ECCENTRICITY":0.00010818,"INCLINATION":51.9034,"RA_OF_ASC_NODE":318.0655,"ARG_OF_PERICENTER":105.7675,"MEAN_ANOMALY":254.3407,"EPHEMERIS_TYPE":0,"CLASSIFICATION_TYPE":"U","NORAD_CAT_ID":64831,"ELEMENT_SET_NO":999,"REV_AT_EPOCH":3447,"BSTAR":0.00011915897,"MEAN_MOTION_DOT":6.87e-6,"MEAN_MOTION_DDOT":0},{"OBJECT_NAME":"KUIPER-00086","OBJECT_ID":"2025-151S","EPOCH":"2026-03-02T21:48:10.219104","MEAN_MOTION":14.7994144,"ECCENTRICITY":7.553e-5,"INCLINATION":51.9021,"RA_OF_ASC_NODE":328.0854,"ARG_OF_PERICENTER":78.9471,"MEAN_ANOMALY":281.1576,"EPHEMERIS_TYPE":0,"CLASSIFICATION_TYPE":"U","NORAD_CAT_ID":64832,"ELEMENT_SET_NO":999,"REV_AT_EPOCH":3433,"BSTAR":0.00053497348,"MEAN_MOTION_DOT":3.86e-5,"MEAN_MOTION_DDOT":0},{"OBJECT_NAME":"KUIPER-00087","OBJECT_ID":"2025-151T","EPOCH":"2026-03-02T22:16:13.288512","MEAN_MOTION":14.80215409,"ECCENTRICITY":0.00011143,"INCLINATION":51.9002,"RA_OF_ASC_NODE":310.4879,"ARG_OF_PERICENTER":73.8617,"MEAN_ANOMALY":286.2469,"EPHEMERIS_TYPE":0,"CLASSIFICATION_TYPE":"U","NORAD_CAT_ID":64833,"ELEMENT_SET_NO":999,"REV_AT_EPOCH":3457,"BSTAR":0.0089639228,"MEAN_MOTION_DOT":0.00069287,"MEAN_MOTION_DDOT":0},{"OBJECT_NAME":"KUIPER-00089","OBJECT_ID":"2025-151U","EPOCH":"2026-03-02T22:05:18.159648","MEAN_MOTION":14.79798743,"ECCENTRICITY":4.698e-5,"INCLINATION":51.9011,"RA_OF_ASC_NODE":315.5084,"ARG_OF_PERICENTER":96.6678,"MEAN_ANOMALY":263.4338,"EPHEMERIS_TYPE":0,"CLASSIFICATION_TYPE":"U","NORAD_CAT_ID":64834,"ELEMENT_SET_NO":999,"REV_AT_EPOCH":3451,"BSTAR":-0.00093087316,"MEAN_MOTION_DOT":-7.287e-5,"MEAN_MOTION_DDOT":0},{"OBJECT_NAME":"KUIPER-00090","OBJECT_ID":"2025-151V","EPOCH":"2026-03-02T22:19:14.792448","MEAN_MOTION":14.79926445,"ECCENTRICITY":0.00010269,"INCLINATION":51.9009,"RA_OF_ASC_NODE":308.0163,"ARG_OF_PERICENTER":105.4024,"MEAN_ANOMALY":254.7052,"EPHEMERIS_TYPE":0,"CLASSIFICATION_TYPE":"U","NORAD_CAT_ID":64835,"ELEMENT_SET_NO":999,"REV_AT_EPOCH":3461,"BSTAR":-0.00013193458,"MEAN_MOTION_DOT":-1.227e-5,"MEAN_MOTION_DDOT":0},{"OBJECT_NAME":"KUIPER-00091","OBJECT_ID":"2025-151W","EPOCH":"2026-03-02T22:12:05.368896","MEAN_MOTION":14.79797155,"ECCENTRICITY":0.00010527,"INCLINATION":51.9024,"RA_OF_ASC_NODE":313.0159,"ARG_OF_PERICENTER":105.1313,"MEAN_ANOMALY":254.9766,"EPHEMERIS_TYPE":0,"CLASSIFICATION_TYPE":"U","NORAD_CAT_ID":64836,"ELEMENT_SET_NO":999,"REV_AT_EPOCH":3454,"BSTAR":0.00070312725,"MEAN_MOTION_DOT":5.126e-5,"MEAN_MOTION_DDOT":0},{"OBJECT_NAME":"KUIPER-00092","OBJECT_ID":"2025-151X","EPOCH":"2026-03-02T21:59:48.932448","MEAN_MOTION":14.79954495,"ECCENTRICITY":9.303e-5,"INCLINATION":51.9019,"RA_OF_ASC_NODE":320.5475,"ARG_OF_PERICENTER":92.2849,"MEAN_ANOMALY":267.822,"EPHEMERIS_TYPE":0,"CLASSIFICATION_TYPE":"U","NORAD_CAT_ID":64837,"ELEMENT_SET_NO":999,"REV_AT_EPOCH":3565,"BSTAR":0.00074591354,"MEAN_MOTION_DOT":5.473e-5,"MEAN_MOTION_DDOT":0},{"OBJECT_NAME":"KUIPER-00093","OBJECT_ID":"2025-151Y","EPOCH":"2026-03-02T21:55:48.987552","MEAN_MOTION":14.7999203,"ECCENTRICITY":9.673e-5,"INCLINATION":51.9011,"RA_OF_ASC_NODE":323.0405,"ARG_OF_PERICENTER":90.5458,"MEAN_ANOMALY":269.5615,"EPHEMERIS_TYPE":0,"CLASSIFICATION_TYPE":"U","NORAD_CAT_ID":64838,"ELEMENT_SET_NO":999,"REV_AT_EPOCH":3440,"BSTAR":0.00077704428,"MEAN_MOTION_DOT":5.716e-5,"MEAN_MOTION_DDOT":0},{"OBJECT_NAME":"KUIPER-00094","OBJECT_ID":"2025-151Z","EPOCH":"2026-03-02T22:27:12.352896","MEAN_MOTION":15.04195966,"ECCENTRICITY":0.00051526,"INCLINATION":51.8893,"RA_OF_ASC_NODE":293.3985,"ARG_OF_PERICENTER":262.8063,"MEAN_ANOMALY":97.2324,"EPHEMERIS_TYPE":0,"CLASSIFICATION_TYPE":"U","NORAD_CAT_ID":64839,"ELEMENT_SET_NO":999,"REV_AT_EPOCH":3482,"BSTAR":0.00050924156,"MEAN_MOTION_DOT":6.885e-5,"MEAN_MOTION_DDOT":0},{"OBJECT_NAME":"KUIPER-00081","OBJECT_ID":"2025-171A","EPOCH":"2026-03-02T15:08:58.809408","MEAN_MOTION":14.7996588,"ECCENTRICITY":3.94e-5,"INCLINATION":51.8999,"RA_OF_ASC_NODE":179.2849,"ARG_OF_PERICENTER":112.5904,"MEAN_ANOMALY":247.51,"EPHEMERIS_TYPE":0,"CLASSIFICATION_TYPE":"U","NORAD_CAT_ID":65132,"ELEMENT_SET_NO":999,"REV_AT_EPOCH":3199,"BSTAR":0.0008192,"MEAN_MOTION_DOT":6.034e-5,"MEAN_MOTION_DDOT":0},{"OBJECT_NAME":"KUIPER-00088","OBJECT_ID":"2025-171B","EPOCH":"2026-03-02T22:28:47.447328","MEAN_MOTION":14.78431283,"ECCENTRICITY":7.985e-5,"INCLINATION":51.8995,"RA_OF_ASC_NODE":195.3034,"ARG_OF_PERICENTER":16.1828,"MEAN_ANOMALY":343.9159,"EPHEMERIS_TYPE":0,"CLASSIFICATION_TYPE":"U","NORAD_CAT_ID":65133,"ELEMENT_SET_NO":999,"REV_AT_EPOCH":3179,"BSTAR":-0.063161154,"MEAN_MOTION_DOT":-0.00439885,"MEAN_MOTION_DDOT":0},{"OBJECT_NAME":"KUIPER-00095","OBJECT_ID":"2025-171C","EPOCH":"2026-03-02T21:59:25.136160","MEAN_MOTION":14.7771325,"ECCENTRICITY":0.00022707,"INCLINATION":51.8965,"RA_OF_ASC_NODE":175.7267,"ARG_OF_PERICENTER":144.3267,"MEAN_ANOMALY":215.7846,"EPHEMERIS_TYPE":0,"CLASSIFICATION_TYPE":"U","NORAD_CAT_ID":65134,"ELEMENT_SET_NO":999,"REV_AT_EPOCH":3206,"BSTAR":0.023112619,"MEAN_MOTION_DOT":0.001713,"MEAN_MOTION_DDOT":0},{"OBJECT_NAME":"KUIPER-00096","OBJECT_ID":"2025-171D","EPOCH":"2026-03-02T15:42:09.849024","MEAN_MOTION":14.79931686,"ECCENTRICITY":4.97e-5,"INCLINATION":51.901,"RA_OF_ASC_NODE":189.1944,"ARG_OF_PERICENTER":139.3192,"MEAN_ANOMALY":220.7807,"EPHEMERIS_TYPE":0,"CLASSIFICATION_TYPE":"U","NORAD_CAT_ID":65135,"ELEMENT_SET_NO":999,"REV_AT_EPOCH":3185,"BSTAR":0.0001418777,"MEAN_MOTION_DOT":8.61e-6,"MEAN_MOTION_DDOT":0},{"OBJECT_NAME":"KUIPER-00097","OBJECT_ID":"2025-171E","EPOCH":"2026-03-02T15:38:16.480896","MEAN_MOTION":14.79926942,"ECCENTRICITY":2.86e-5,"INCLINATION":51.9005,"RA_OF_ASC_NODE":191.8311,"ARG_OF_PERICENTER":104.5909,"MEAN_ANOMALY":255.5085,"EPHEMERIS_TYPE":0,"CLASSIFICATION_TYPE":"U","NORAD_CAT_ID":65136,"ELEMENT_SET_NO":999,"REV_AT_EPOCH":3180,"BSTAR":-0.00029543,"MEAN_MOTION_DOT":-2.472e-5,"MEAN_MOTION_DDOT":0}]
