KUIPER-00083            
1 64829U 25151P   26061.94491788  .00001587  00000+0  23705-3 0  9998
2 64829  51.9029 325.4156 0000662 116.5097 243.5934 14.79943898 35567
KUIPER-00084            
1 64830U 25151Q   26061.93408413 -.00001189  00000+0 -12706-3 0  9991
2 64830  51.9031 335.4479 0001051 208.0046 152.0860 14.79923673 34239
KUIPER-00085            
1 64831U 25151R   26061.91924615  .00000687  00000+0  11916-3 0  9999
2 64831  51.9034 318.0655 0001081 105.7675 254.3407 14.79936172 34477
KUIPER-00086            
1 64832U 25151S   26061.90845161  .00003860  00000+0  53497-3 0  9993
2 64832  51.9021 328.0854 0000755  78.9471 281.1576 14.79941440 34332
KUIPER-00087            
1 64833U 25151T   26061.92793158  .00069287  00000+0  89639-2 0  9995
2 64833  51.9002 310.4879 0001114  73.8617 286.2469 14.80215409 34574
KUIPER-00089            
1 64834U 25151U   26061.92034907 -.00007287  00000+0 -93087-3 0  9993
2 64834  51.9011 315.5084 0000469  96.6678 263.4338 14.79798743 34512
KUIPER-00090            
1 64835U 25151V   26061.93003232 -.00001227  00000+0 -13193-3 0  9990
2 64835  51.9009 308.0163 0001026 105.4024 254.7052 14.79926445 34618
KUIPER-00091            
1 64836U 25151W   26061.92506214  .00005126  00000+0  70313-3 0  9995
2 64836  51.9024 313.0159 0001052 105.1313 254.9766 14.79797155 34544
KUIPER-00092            
1 64837U 25151X   26061.91653857  .00005473  00000+0  74591-3 0  9998
2 64837  51.9019 320.5475 0000930  92.2849 267.8220 14.79954495 35650
KUIPER-00093            
1 64838U 25151Y   26061.91376143  .00005716  00000+0  77704-3 0  9998
2 64838  51.9011 323.0405 0000967  90.5458 269.5615 14.79992030 34407
KUIPER-00094            
1 64839U 25151Z   26061.93555964  .00006885  00000+0  50924-3 0  9994
2 64839  51.8893 293.3985 0005152 262.8063  97.2324 15.04195966 34825
KUIPER-00081            
1 65132U 25171A   26061.63123622  .00006034  00000+0  81920-3 0  9998
2 65132  51.8999 179.2849 0000394 112.5904 247.5100 14.79965880 31996
KUIPER-00088            
1 65133U 25171B   26061.93666027 -.00439885  00000+0 -63161-1 0  9994
2 65133  51.8995 195.3034 0000798  16.1828 343.9159 14.78431283 31797
KUIPER-00095            
1 65134U 25171C   26061.91626315  .00171300  00000+0  23113-1 0  9995
2 65134  51.8965 175.7267 0002270 144.3267 215.7846 14.77713250 32069
KUIPER-00096            
1 65135U 25171D   26061.65428066  .00000861  00000+0  14188-3 0  9997
2 65135  51.9010 189.1944 0000497 139.3192 220.7807 14.79931686 31859
KUIPER-00097            
1 65136U 25171E   26061.65157964 -.00002472  00000+0 -29543-3 0  9997
2 65136  51.9005 191.8311 0000286 104.5909 255.5085 14.79926942 31806
